{
  "type": "FeatureCollection",
  "features": [
    {
      "type": "Feature",
      "properties": {
        "norad_id": 37474,
        "name": "FENGYUN 1C DEB",
        "group": "fengyun-1c-debris",
        "lat": -47.79383725397417,
        "lon": 11.175430856731404,
        "alt_km": 696.1286992998112,
        "timestamp": "2025-12-21T03:56:51.124246+00:00",
        "meta_object_name": "FENGYUN 1C DEB",
        "meta_object_id": "1999-025EJU",
        "meta_epoch": "2025-12-17T07:46:09.276672",
        "meta_mean_motion": 14.7520815,
        "meta_eccentricity": 0.01320065,
        "meta_inclination": 99.1653,
        "meta_ra_of_asc_node": 197.0828,
        "meta_arg_of_pericenter": 120.7322,
        "meta_mean_anomaly": 240.6963,
        "meta_ephemeris_type": 0,
        "meta_classification_type": "U",
        "meta_norad_cat_id": 37474,
        "meta_element_set_no": 999,
        "meta_rev_at_epoch": 62443,
        "meta_bstar": 0.00094441555,
        "meta_mean_motion_dot": 7.29e-05,
        "meta_mean_motion_ddot": 0,
        "tle_line1": "1 37474U 99025EJU 25351.32371848  .00007290  00000+0  94442-3 0  9995",
        "tle_line2": "2 37474  99.1653 197.0828 0132006 120.7322 240.6963 14.75208150624436"
      },
      "geometry": {
        "type": "Point",
        "coordinates": [
          11.175430856731404,
          -47.79383725397417
        ]
      }
    },
    {
      "type": "Feature",
      "properties": {
        "norad_id": 37477,
        "name": "FENGYUN 1C DEB",
        "group": "fengyun-1c-debris",
        "lat": -27.141843873082628,
        "lon": 175.14413302685637,
        "alt_km": 847.3006824258919,
        "timestamp": "2025-12-21T03:56:51.124255+00:00",
        "meta_object_name": "FENGYUN 1C DEB",
        "meta_object_id": "1999-025EJX",
        "meta_epoch": "2025-12-16T18:06:36.022176",
        "meta_mean_motion": 14.19731482,
        "meta_eccentricity": 0.00371355,
        "meta_inclination": 98.6057,
        "meta_ra_of_asc_node": 355.3103,
        "meta_arg_of_pericenter": 94.8392,
        "meta_mean_anomaly": 265.7026,
        "meta_ephemeris_type": 0,
        "meta_classification_type": "U",
        "meta_norad_cat_id": 37477,
        "meta_element_set_no": 999,
        "meta_rev_at_epoch": 81971,
        "meta_bstar": 0.00055952668,
        "meta_mean_motion_dot": 1.15e-05,
        "meta_mean_motion_ddot": 0,
        "tle_line1": "1 37477U 99025EJX 25350.75458359  .00001150  00000+0  55953-3 0  9990",
        "tle_line2": "2 37477  98.6057 355.3103 0037135  94.8392 265.7026 14.19731482819713"
      },
      "geometry": {
        "type": "Point",
        "coordinates": [
          175.14413302685637,
          -27.141843873082628
        ]
      }
    },
    {
      "type": "Feature",
      "properties": {
        "norad_id": 37478,
        "name": "FENGYUN 1C DEB",
        "group": "fengyun-1c-debris",
        "lat": 35.184113684823586,
        "lon": -30.135236137717065,
        "alt_km": 1268.8323628482149,
        "timestamp": "2025-12-21T03:56:51.124264+00:00",
        "meta_object_name": "FENGYUN 1C DEB",
        "meta_object_id": "1999-025EJY",
        "meta_epoch": "2025-12-14T05:55:23.732544",
        "meta_mean_motion": 13.02983973,
        "meta_eccentricity": 0.05482188,
        "meta_inclination": 99.6498,
        "meta_ra_of_asc_node": 330.5496,
        "meta_arg_of_pericenter": 315.7365,
        "meta_mean_anomaly": 40.1108,
        "meta_ephemeris_type": 0,
        "meta_classification_type": "U",
        "meta_norad_cat_id": 37478,
        "meta_element_set_no": 999,
        "meta_rev_at_epoch": 56581,
        "meta_bstar": 0.0055489953,
        "meta_mean_motion_dot": 3.525e-05,
        "meta_mean_motion_ddot": 0,
        "tle_line1": "1 37478U 99025EJY 25348.24680246  .00003525  00000+0  55490-2 0  9997",
        "tle_line2": "2 37478  99.6498 330.5496 0548218 315.7365  40.1108 13.02983973565818"
      },
      "geometry": {
        "type": "Point",
        "coordinates": [
          -30.135236137717065,
          35.184113684823586
        ]
      }
    },
    {
      "type": "Feature",
      "properties": {
        "norad_id": 37589,
        "name": "FENGYUN 1C DEB",
        "group": "fengyun-1c-debris",
        "lat": -80.06981959126551,
        "lon": 11.921173655046152,
        "alt_km": 795.0118595722088,
        "timestamp": "2025-12-21T03:56:51.124273+00:00",
        "meta_object_name": "FENGYUN 1C DEB",
        "meta_object_id": "1999-025EKH",
        "meta_epoch": "2025-12-14T22:19:52.787712",
        "meta_mean_motion": 14.08203479,
        "meta_eccentricity": 0.01182522,
        "meta_inclination": 99.0734,
        "meta_ra_of_asc_node": 251.544,
        "meta_arg_of_pericenter": 258.1684,
        "meta_mean_anomaly": 100.6202,
        "meta_ephemeris_type": 0,
        "meta_classification_type": "U",
        "meta_norad_cat_id": 37589,
        "meta_element_set_no": 999,
        "meta_rev_at_epoch": 82615,
        "meta_bstar": 0.0019842502,
        "meta_mean_motion_dot": 3.566e-05,
        "meta_mean_motion_ddot": 0,
        "tle_line1": "1 37589U 99025EKH 25348.93047208  .00003566  00000+0  19843-2 0  9998",
        "tle_line2": "2 37589  99.0734 251.5440 0118252 258.1684 100.6202 14.08203479826151"
      },
      "geometry": {
        "type": "Point",
        "coordinates": [
          11.921173655046152,
          -80.06981959126551
        ]
      }
    },
    {
      "type": "Feature",
      "properties": {
        "norad_id": 37594,
        "name": "FENGYUN 1C DEB",
        "group": "fengyun-1c-debris",
        "lat": -10.491310933298571,
        "lon": -157.3613054445086,
        "alt_km": 824.2309873220611,
        "timestamp": "2025-12-21T03:56:51.124282+00:00",
        "meta_object_name": "FENGYUN 1C DEB",
        "meta_object_id": "1999-025EKN",
        "meta_epoch": "2025-12-17T08:50:53.140704",
        "meta_mean_motion": 14.11122506,
        "meta_eccentricity": 0.00850392,
        "meta_inclination": 98.7342,
        "meta_ra_of_asc_node": 20.5782,
        "meta_arg_of_pericenter": 256.4735,
        "meta_mean_anomaly": 102.6951,
        "meta_ephemeris_type": 0,
        "meta_classification_type": "U",
        "meta_norad_cat_id": 37594,
        "meta_element_set_no": 999,
        "meta_rev_at_epoch": 77827,
        "meta_bstar": 0.00026135684,
        "meta_mean_motion_dot": 4.43e-06,
        "meta_mean_motion_ddot": 0,
        "tle_line1": "1 37594U 99025EKN 25351.36867061  .00000443  00000+0  26136-3 0  9997",
        "tle_line2": "2 37594  98.7342  20.5782 0085039 256.4735 102.6951 14.11122506778272"
      },
      "geometry": {
        "type": "Point",
        "coordinates": [
          -157.3613054445086,
          -10.491310933298571
        ]
      }
    },
    {
      "type": "Feature",
      "properties": {
        "norad_id": 37595,
        "name": "FENGYUN 1C DEB",
        "group": "fengyun-1c-debris",
        "lat": 20.661930138094743,
        "lon": 28.83400876269938,
        "alt_km": 676.6636598488631,
        "timestamp": "2025-12-21T03:56:51.124291+00:00",
        "meta_object_name": "FENGYUN 1C DEB",
        "meta_object_id": "1999-025EKP",
        "meta_epoch": "2025-12-19T20:17:37.284288",
        "meta_mean_motion": 14.71383001,
        "meta_eccentricity": 0.00286871,
        "meta_inclination": 99.0453,
        "meta_ra_of_asc_node": 203.926,
        "meta_arg_of_pericenter": 343.5826,
        "meta_mean_anomaly": 33.1316,
        "meta_ephemeris_type": 0,
        "meta_classification_type": "U",
        "meta_norad_cat_id": 37595,
        "meta_element_set_no": 999,
        "meta_rev_at_epoch": 62710,
        "meta_bstar": 0.0022288021,
        "meta_mean_motion_dot": 0.00013847,
        "meta_mean_motion_ddot": 0,
        "tle_line1": "1 37595U 99025EKP 25353.84557042  .00013847  00000+0  22288-2 0  9993",
        "tle_line2": "2 37595  99.0453 203.9260 0028687 343.5826  33.1316 14.71383001627106"
      },
      "geometry": {
        "type": "Point",
        "coordinates": [
          28.83400876269938,
          20.661930138094743
        ]
      }
    },
    {
      "type": "Feature",
      "properties": {
        "norad_id": 37600,
        "name": "FENGYUN 1C DEB",
        "group": "fengyun-1c-debris",
        "lat": -46.27550366212488,
        "lon": -38.01129587133231,
        "alt_km": 1205.662715786958,
        "timestamp": "2025-12-21T03:56:51.124301+00:00",
        "meta_object_name": "FENGYUN 1C DEB",
        "meta_object_id": "1999-025EKU",
        "meta_epoch": "2025-12-20T16:26:04.546176",
        "meta_mean_motion": 13.82611788,
        "meta_eccentricity": 0.035671,
        "meta_inclination": 98.9343,
        "meta_ra_of_asc_node": 150.9991,
        "meta_arg_of_pericenter": 28.0032,
        "meta_mean_anomaly": 333.982,
        "meta_ephemeris_type": 0,
        "meta_classification_type": "U",
        "meta_norad_cat_id": 37600,
        "meta_element_set_no": 999,
        "meta_rev_at_epoch": 88597,
        "meta_bstar": 0.0017605,
        "meta_mean_motion_dot": 3.074e-05,
        "meta_mean_motion_ddot": 0,
        "tle_line1": "1 37600U 99025EKU 25354.68477484  .00003074  00000+0  17605-2 0  9992",
        "tle_line2": "2 37600  98.9343 150.9991 0356710  28.0032 333.9820 13.82611788885975"
      },
      "geometry": {
        "type": "Point",
        "coordinates": [
          -38.01129587133231,
          -46.27550366212488
        ]
      }
    }
  ]
}